NORAD_CAT_ID,OBJECT_NAME,OBJECT_TYPE,EPOCH,MEAN_MOTION,ECCENTRICITY,INCLINATION,RA_OF_ASC_NODE,ARG_OF_PERICENTER,MEAN_ANOMALY,BSTAR,MEAN_MOTION_DOT,MEAN_MOTION_DDOT,TLE_LINE0,TLE_LINE1,TLE_LINE2,SEMIMAJOR_AXIS,PERIOD,APOGEE,PERIGEE,DECAYED
55628.0,STARLINK-5484,PAYLOAD,2024-01-28 22:18:22,14.98330672,0.0002505,70.0025,347.9049,249.5061,110.5829,6.1694e-05,6.43e-06,0.0,0 STARLINK-5484,1 55628U 23021A   24028.92942703  .00000643  00000-0  61694-4 0  9999,2 55628  70.0025 347.9049 0002505 249.5061 110.5829 14.98330672 52845,6950.191,96.107,573.797,570.315,0.0
55628.0,STARLINK-5484,PAYLOAD,2024-01-29 03:06:46,14.98330932,0.0002673,70.0022,347.4,257.9507,102.1353,4.2236e-05,4.11e-06,0.0,0 STARLINK-5484,1 55628U 23021A   24029.12970783  .00000411  00000-0  42236-4 0  9995,2 55628  70.0022 347.4000 0002673 257.9507 102.1353 14.98330932 52576,6950.19,96.107,573.913,570.197,0.0
55628.0,STARLINK-5484,PAYLOAD,2024-01-29 07:55:10,14.98333726,0.0002455,70.002,346.8943,251.9414,108.1478,5.9597e-05,6.18e-06,0.0,0 STARLINK-5484,1 55628U 23021A   24029.32998511  .00000618  00000-0  59597-4 0  9993,2 55628  70.0020 346.8943 0002455 251.9414 108.1478 14.98333726 52907,6950.181,96.107,573.753,570.34,0.0
55628.0,STARLINK-5484,PAYLOAD,2024-01-30 03:08:47,14.98324639,0.0002574,70.0028,344.8764,258.9683,101.1187,8.4879e-05,9.2e-06,0.0,0 STARLINK-5484,1 55628U 23021A   24030.13111036  .00000920  00000-0  84879-4 0  9990,2 55628  70.0028 344.8764 0002574 258.9683 101.1187 14.98324639 52724,6950.209,96.107,573.863,570.285,0.0
55628.0,STARLINK-5484,PAYLOAD,2024-01-30 06:21:04,14.98330914,0.0002296,70.0035,344.5351,278.4375,81.6524,-4.3469e-05,-6.11e-06,0.0,0 STARLINK-5484,1 55628U 23021A   24030.26463160 -.00000611  00000-0 -43469-4 0  9991,2 55628  70.0035 344.5351 0002296 278.4375  81.6524 14.98330914 53043,6950.19,96.107,573.651,570.459,0.0
55628.0,STARLINK-5484,PAYLOAD,2024-01-30 22:22:24,14.9832968,0.0002656,70.0019,342.8549,261.863,98.2228,-1.5791e-05,-2.81e-06,0.0,0 STARLINK-5484,1 55628U 23021A   24030.93222994 -.00000281  00000-0 -15791-4 0  9993,2 55628  70.0019 342.8549 0002656 261.8630  98.2228 14.98329680 53149,6950.194,96.107,573.905,570.213,0.0
55628.0,STARLINK-5484,PAYLOAD,2024-01-31 03:10:49,14.98323628,0.0002273,70.0019,342.349,255.5201,104.5706,-6.6147e-05,-8.82e-06,0.0,0 STARLINK-5484,1 55628U 23021A   24031.13251511 -.00000882  00000-0 -66147-4 0  9991,2 55628  70.0019 342.3490 0002273 255.5201 104.5706 14.98323628 52875,6950.213,96.107,573.657,570.498,0.0
55628.0,STARLINK-5484,PAYLOAD,2024-01-31 06:23:04,14.98336447,0.0002453,70.0014,342.0118,265.2379,94.85,5.8653e-05,6.07e-06,0.0,0 STARLINK-5484,1 55628U 23021A   24031.26602425  .00000607  00000-0  58653-4 0  9995,2 55628  70.0014 342.0118 0002453 265.2379  94.8500 14.98336447 52896,6950.173,96.107,573.743,570.333,0.0
55628.0,STARLINK-5484,PAYLOAD,2024-01-31 19:12:09,14.98325815,0.0002725,70.0013,340.6651,263.234,96.8509,2.5641e-05,2.13e-06,0.0,0 STARLINK-5484,1 55628U 23021A   24031.80011096  .00000213  00000-0  25641-4 0  9997,2 55628  70.0013 340.6651 0002725 263.2340  96.8509 14.98325815 52976,6950.206,96.107,573.965,570.177,0.0
55628.0,STARLINK-5484,PAYLOAD,2024-02-01 06:25:06,14.98328181,0.0002691,70.0013,339.4872,267.8212,92.2639,2.5357e-05,2.1e-06,0.0,0 STARLINK-5484,1 55628U 23021A   24032.26743103  .00000210  00000-0  25357-4 0  9990,2 55628  70.0013 339.4872 0002691 267.8212  92.2639 14.98328181 53342,6950.199,96.107,573.934,570.193,0.0
55628.0,STARLINK-5484,PAYLOAD,2024-02-02 03:14:50,14.98325443,0.0002679,70.0013,337.2988,263.6716,96.4138,0.00022823,2.631e-05,0.0,0 STARLINK-5484,1 55628U 23021A   24033.13530650  .00002631  00000-0  22823-3 0  9991,2 55628  70.0013 337.2988 0002679 263.6716  96.4138 14.98325443 53174,6950.207,96.107,573.934,570.21,0.0
55628.0,STARLINK-5484,PAYLOAD,2024-02-02 06:27:06,14.98336099,0.0002642,70.0013,336.9624,265.4501,94.6356,9.64e-05,1.058e-05,0.0,0 STARLINK-5484,1 55628U 23021A   24033.26882281  .00001058  00000-0  96400-4 0  9990,2 55628  70.0013 336.9624 0002642 265.4501  94.6356 14.98336099 53192,6950.174,96.107,573.875,570.203,0.0
55628.0,STARLINK-5484,PAYLOAD,2024-02-02 19:16:11,14.98328334,0.0002575,70.0016,335.617,253.9956,106.092,5.6413e-05,5.8e-06,0.0,0 STARLINK-5484,1 55628U 23021A   24033.80290752  .00000580  00000-0  56413-4 0  9995,2 55628  70.0016 335.6170 0002575 253.9956 106.0920 14.98328334 53275,6950.198,96.107,573.853,570.273,0.0
55628.0,STARLINK-5484,PAYLOAD,2024-02-02 22:28:27,14.98326713,0.0002485,70.0017,335.2796,259.1335,100.9544,3.8963e-05,3.72e-06,0.0,0 STARLINK-5484,1 55628U 23021A   24033.93642956  .00000372  00000-0  38963-4 0  9995,2 55628  70.0017 335.2796 0002485 259.1335 100.9544 14.98326713 53594,6950.203,96.107,573.795,570.341,0.0
55628.0,STARLINK-5484,PAYLOAD,2024-02-03 04:52:59,14.98327207,0.0002484,70.0017,334.6065,259.8988,100.1891,4.1698e-05,4.05e-06,0.0,0 STARLINK-5484,1 55628U 23021A   24034.20346992  .00000405  00000-0  41698-4 0  9993,2 55628  70.0017 334.6065 0002484 259.8988 100.1891 14.98327207 53637,6950.202,96.107,573.793,570.34,0.0
55628.0,STARLINK-5484,PAYLOAD,2024-02-03 22:30:28,14.98333864,0.0002527,70.0018,332.7558,258.2896,101.7979,3.0135e-05,2.67e-06,0.0,0 STARLINK-5484,1 55628U 23021A   24034.93782413  .00000267  00000-0  30135-4 0  9995,2 55628  70.0018 332.7558 0002527 258.2896 101.7979 14.98333864 53745,6950.181,96.107,573.802,570.29,0.0
55628.0,STARLINK-5484,PAYLOAD,2024-02-04 03:18:52,14.98335446,0.0002495,70.0018,332.2507,256.1725,103.9156,4.6522e-05,4.62e-06,0.0,0 STARLINK-5484,1 55628U 23021A   24035.13810211  .00000462  00000-0  46522-4 0  9990,2 55628  70.0018 332.2507 0002495 256.1725 103.9156 14.98335446 53475,6950.176,96.107,573.775,570.307,0.0
55628.0,STARLINK-5484,PAYLOAD,2024-02-04 04:55:00,14.98336293,0.0002497,70.0018,332.0825,255.6007,104.4875,5.7359e-05,5.92e-06,0.0,0 STARLINK-5484,1 55628U 23021A   24035.20486139  .00000592  00000-0  57359-4 0  9990,2 55628  70.0018 332.0825 0002497 255.6007 104.4875 14.98336293 53784,6950.173,96.107,573.774,570.303,0.0
55628.0,STARLINK-5484,PAYLOAD,2024-02-04 19:20:13,14.98327043,0.0002366,70.002,330.5678,250.7555,109.3348,4.6002e-05,4.56e-06,0.0,0 STARLINK-5484,1 55628U 23021A   24035.80570661  .00000456  00000-0  46002-4 0  9992,2 55628  70.0020 330.5678 0002366 250.7555 109.3348 14.98327043 53574,6950.202,96.107,573.711,570.423,0.0
55628.0,STARLINK-5484,PAYLOAD,2024-02-04 22:32:29,14.98326523,0.0002408,70.002,330.231,248.9275,111.1626,3.4746e-05,3.22e-06,0.0,0 STARLINK-5484,1 55628U 23021A   24035.93922713  .00000322  00000-0  34746-4 0  9999,2 55628  70.0020 330.2310 0002408 248.9275 111.1626 14.98326523 53896,6950.204,96.107,573.742,570.395,0.0
55628.0,STARLINK-5484,PAYLOAD,2024-02-05 12:57:41,14.98331704,0.0002861,70.0009,328.7142,270.092,89.9911,2.6745e-05,2.26e-06,0.0,0 STARLINK-5484,1 55628U 23021A   24036.54006509  .00000226  00000-0  26745-4 0  9996,2 55628  70.0009 328.7142 0002861 270.0920  89.9911 14.98331704 53980,6950.188,96.107,574.041,570.064,0.0
55628.0,STARLINK-5484,PAYLOAD,2024-02-05 22:34:30,14.98333177,0.0002907,70.0006,327.704,269.2171,90.8654,-2.9071e-05,-4.4e-06,0.0,0 STARLINK-5484,1 55628U 23021A   24036.94062549 -.00000440  00000-0 -29071-4 0  9991,2 55628  70.0006 327.7040 0002907 269.2171  90.8654 14.98333177 54041,6950.183,96.107,574.068,570.028,0.0
55628.0,STARLINK-5484,PAYLOAD,2024-02-06 03:22:53,14.98338582,0.0002487,70.001,327.1987,257.0298,103.0583,-2.8118e-05,-4.28e-06,0.0,0 STARLINK-5484,1 55628U 23021A   24037.14090135 -.00000428  00000-0 -28118-4 0  9993,2 55628  70.0010 327.1987 0002487 257.0298 103.0583 14.98338582 53770,6950.166,96.106,573.76,570.303,0.0
55628.0,STARLINK-5484,PAYLOAD,2024-02-06 04:59:01,14.98337405,0.0002725,70.001,327.031,266.9277,93.157,5.4592e-05,5.59e-06,0.0,0 STARLINK-5484,1 55628U 23021A   24037.20766015  .00000559  00000-0  54592-4 0  9995,2 55628  70.0010 327.0310 0002725 266.9277  93.1570 14.98337405 54083,6950.17,96.107,573.929,570.141,0.0
55628.0,STARLINK-5484,PAYLOAD,2024-02-06 19:24:14,14.98317184,0.0002524,70.0014,325.5159,265.1947,94.8923,0.00029561,3.435e-05,0.0,0 STARLINK-5484,1 55628U 23021A   24037.80850410  .00003435  00000-0  29561-3 0  9997,2 55628  70.0014 325.5159 0002524 265.1947  94.8923 14.98317184 53871,6950.233,96.108,573.852,570.343,0.0
55628.0,STARLINK-5484,PAYLOAD,2024-02-06 22:36:31,14.98303665,0.0002685,70.001,325.1795,268.7571,91.328,0.00050066,5.882e-05,0.0,0 STARLINK-5484,1 55628U 23021A   24037.94202796  .00005882  00000-0  50066-3 0  9992,2 55628  70.0010 325.1795 0002685 268.7571  91.3280 14.98303665 54192,6950.274,96.109,574.005,570.273,0.0
55628.0,STARLINK-5484,PAYLOAD,2024-02-07 05:01:03,14.98317192,0.0002245,70.0012,324.5067,264.09,96.0003,0.00040549,4.747e-05,0.0,0 STARLINK-5484,1 55628U 23021A   24038.20906495  .00004747  00000-0  40549-3 0  9993,2 55628  70.0012 324.5067 0002245 264.0900  96.0003 14.98317192 54236,6950.232,96.108,573.658,570.537,0.0
55628.0,STARLINK-5484,PAYLOAD,2024-02-07 19:26:16,14.98300951,0.0002561,70.002,322.9948,256.1709,103.9165,0.00047428,5.566e-05,0.0,0 STARLINK-5484,1 55628U 23021A   24038.80991114  .00005566  00000-0  47428-3 0  9994,2 55628  70.0020 322.9948 0002561 256.1709 103.9165 14.98300951 54024,6950.283,96.109,573.928,570.368,0.0
55628.0,STARLINK-5484,PAYLOAD,2024-02-07 21:02:24,14.98299692,0.0002622,70.0019,322.8265,254.9426,105.1443,0.00049362,5.797e-05,0.0,0 STARLINK-5484,1 55628U 23021A   24038.87667211  .00005797  00000-0  49362-3 0  9994,2 55628  70.0019 322.8265 0002622 254.9426 105.1443 14.98299692 54339,6950.287,96.109,573.974,570.329,0.0
55628.0,STARLINK-5484,PAYLOAD,2024-02-08 01:50:48,14.98328035,0.0002537,70.002,322.3218,247.1854,112.9037,-3.4957e-05,-5.1e-06,0.0,0 STARLINK-5484,1 55628U 23021A   24039.07694664 -.00000510  00000-0 -34957-4 0  9994,2 55628  70.0020 322.3218 0002537 247.1854 112.9037 14.98328035 54067,6950.199,96.107,573.827,570.301,0.0
